{"type":"FeatureCollection","features":[{"type":"Feature","properties":{},"geometry":{"type":"LineString","coordinates":[[-105.26384,40.007197],[-105.26406,40.007188],[-105.264184,40.007052],[-105.264131,40.00692],[-105.264107,40.006806],[-105.264119,40.006669],[-105.264196,40.006478],[-105.264327,40.006369],[-105.264404,40.006315],[-105.264494,40.006161],[-105.264561,40.005988],[-105.264542,40.005858],[-105.264354,40.005651],[-105.264223,40.005541],[-105.264254,40.005533],[-105.264325,40.005478],[-105.264362,40.005402],[-105.264359,40.005358],[-105.264312,40.0053],[-105.264259,40.005266],[-105.264257,40.005213],[-105.264298,40.005081],[-105.264267,40.005019],[-105.264186,40.004961],[-105.264144,40.004919],[-105.26411,40.004855],[-105.264107,40.00476],[-105.26433,40.004718],[-105.264563,40.00478],[-105.264982,40.004782]]}}]}